{
  "type": "FeatureCollection",
  "features": [
    {
      "type": "Feature",
      "properties": {
        "norad_id": 28890,
        "name": "BEIJING 1",
        "group": "dmc",
        "lat": 76.44670995570236,
        "lon": -23.41498013574167,
        "alt_km": 665.1347972289987,
        "timestamp": "2025-12-17T23:38:06.529433+00:00",
        "meta_object_name": "BEIJING 1",
        "meta_object_id": "2005-043A",
        "meta_epoch": "2025-12-17T14:58:17.782752",
        "meta_mean_motion": 14.6337137,
        "meta_eccentricity": 0.00155265,
        "meta_inclination": 98.2646,
        "meta_ra_of_asc_node": 119.1416,
        "meta_arg_of_pericenter": 126.8267,
        "meta_mean_anomaly": 233.4362,
        "meta_ephemeris_type": 0,
        "meta_classification_type": "U",
        "meta_norad_cat_id": 28890,
        "meta_element_set_no": 999,
        "meta_rev_at_epoch": 7409,
        "meta_bstar": 8.6353571e-05,
        "meta_mean_motion_dot": 3.98e-06,
        "meta_mean_motion_ddot": 0,
        "tle_line1": "1 28890U 05043A   25351.62381693  .00000398  00000+0  86354-4 0  9992",
        "tle_line2": "2 28890  98.2646 119.1416 0015526 126.8267 233.4362 14.63371370 74096"
      },
      "geometry": {
        "type": "Point",
        "coordinates": [
          -23.41498013574167,
          76.44670995570236
        ]
      }
    },
    {
      "type": "Feature",
      "properties": {
        "norad_id": 33320,
        "name": "HUANJING 1A (HJ-1A)",
        "group": "dmc",
        "lat": 33.674084698509674,
        "lon": 165.20473317558532,
        "alt_km": 625.0563815091282,
        "timestamp": "2025-12-17T23:38:06.529463+00:00",
        "meta_object_name": "HUANJING 1A (HJ-1A)",
        "meta_object_id": "2008-041A",
        "meta_epoch": "2025-12-17T14:53:10.877856",
        "meta_mean_motion": 14.83410961,
        "meta_eccentricity": 0.00198863,
        "meta_inclination": 97.6536,
        "meta_ra_of_asc_node": 339.7152,
        "meta_arg_of_pericenter": 19.0249,
        "meta_mean_anomaly": 341.1704,
        "meta_ephemeris_type": 0,
        "meta_classification_type": "U",
        "meta_norad_cat_id": 33320,
        "meta_element_set_no": 999,
        "meta_rev_at_epoch": 93148,
        "meta_bstar": 0.00016019991,
        "meta_mean_motion_dot": 1.268e-05,
        "meta_mean_motion_ddot": 0,
        "tle_line1": "1 33320U 08041A   25351.62026479  .00001268  00000+0  16020-3 0  9994",
        "tle_line2": "2 33320  97.6536 339.7152 0019886  19.0249 341.1704 14.83410961931488"
      },
      "geometry": {
        "type": "Point",
        "coordinates": [
          165.20473317558532,
          33.674084698509674
        ]
      }
    },
    {
      "type": "Feature",
      "properties": {
        "norad_id": 33321,
        "name": "HUANJING 1B (HJ-1B)",
        "group": "dmc",
        "lat": -4.518417137685456,
        "lon": -15.64431959171601,
        "alt_km": 611.9775229017323,
        "timestamp": "2025-12-17T23:38:06.529478+00:00",
        "meta_object_name": "HUANJING 1B (HJ-1B)",
        "meta_object_id": "2008-041B",
        "meta_epoch": "2025-12-17T15:33:28.805184",
        "meta_mean_motion": 14.82832485,
        "meta_eccentricity": 0.00381449,
        "meta_inclination": 97.6397,
        "meta_ra_of_asc_node": 343.4263,
        "meta_arg_of_pericenter": 60.1026,
        "meta_mean_anomaly": 300.3969,
        "meta_ephemeris_type": 0,
        "meta_classification_type": "U",
        "meta_norad_cat_id": 33321,
        "meta_element_set_no": 999,
        "meta_rev_at_epoch": 93150,
        "meta_bstar": 6.6546407e-05,
        "meta_mean_motion_dot": 4.94e-06,
        "meta_mean_motion_ddot": 0,
        "tle_line1": "1 33321U 08041B   25351.64825006  .00000494  00000+0  66546-4 0  9999",
        "tle_line2": "2 33321  97.6397 343.4263 0038144  60.1026 300.3969 14.82832485931508"
      },
      "geometry": {
        "type": "Point",
        "coordinates": [
          -15.64431959171601,
          -4.518417137685456
        ]
      }
    },
    {
      "type": "Feature",
      "properties": {
        "norad_id": 33446,
        "name": "YAOGAN-4",
        "group": "dmc",
        "lat": -80.65119471547247,
        "lon": 44.31199086840476,
        "alt_km": 621.050735739158,
        "timestamp": "2025-12-17T23:38:06.529490+00:00",
        "meta_object_name": "YAOGAN-4",
        "meta_object_id": "2008-061A",
        "meta_epoch": "2025-12-17T12:43:27.984864",
        "meta_mean_motion": 14.82696581,
        "meta_eccentricity": 0.00132888,
        "meta_inclination": 97.9187,
        "meta_ra_of_asc_node": 281.5825,
        "meta_arg_of_pericenter": 306.5713,
        "meta_mean_anomaly": 53.4277,
        "meta_ephemeris_type": 0,
        "meta_classification_type": "U",
        "meta_norad_cat_id": 33446,
        "meta_element_set_no": 999,
        "meta_rev_at_epoch": 91874,
        "meta_bstar": 0.00015271326,
        "meta_mean_motion_dot": 1.18e-05,
        "meta_mean_motion_ddot": 0,
        "tle_line1": "1 33446U 08061A   25351.53018501  .00001180  00000+0  15271-3 0  9992",
        "tle_line2": "2 33446  97.9187 281.5825 0013288 306.5713  53.4277 14.82696581918748"
      },
      "geometry": {
        "type": "Point",
        "coordinates": [
          44.31199086840476,
          -80.65119471547247
        ]
      }
    },
    {
      "type": "Feature",
      "properties": {
        "norad_id": 35681,
        "name": "DEIMOS-1",
        "group": "dmc",
        "lat": -67.74351321858052,
        "lon": -46.99948360580797,
        "alt_km": 654.400996767994,
        "timestamp": "2025-12-17T23:38:06.529501+00:00",
        "meta_object_name": "DEIMOS-1",
        "meta_object_id": "2009-041A",
        "meta_epoch": "2025-12-17T14:22:07.864896",
        "meta_mean_motion": 14.74959554,
        "meta_eccentricity": 0.00026436,
        "meta_inclination": 97.7141,
        "meta_ra_of_asc_node": 151.975,
        "meta_arg_of_pericenter": 71.3807,
        "meta_mean_anomaly": 288.769,
        "meta_ephemeris_type": 0,
        "meta_classification_type": "U",
        "meta_norad_cat_id": 35681,
        "meta_element_set_no": 999,
        "meta_rev_at_epoch": 88011,
        "meta_bstar": 6.1337004e-05,
        "meta_mean_motion_dot": 3.65e-06,
        "meta_mean_motion_ddot": 0,
        "tle_line1": "1 35681U 09041A   25351.59870214  .00000365  00000+0  61337-4 0  9996",
        "tle_line2": "2 35681  97.7141 151.9750 0002643  71.3807 288.7690 14.74959554880114"
      },
      "geometry": {
        "type": "Point",
        "coordinates": [
          -46.99948360580797,
          -67.74351321858052
        ]
      }
    },
    {
      "type": "Feature",
      "properties": {
        "norad_id": 35683,
        "name": "UK-DMC 2",
        "group": "dmc",
        "lat": -79.63355321028322,
        "lon": 175.73977732156195,
        "alt_km": 651.5262594879678,
        "timestamp": "2025-12-17T23:38:06.529512+00:00",
        "meta_object_name": "UK-DMC 2",
        "meta_object_id": "2009-041C",
        "meta_epoch": "2025-12-17T14:14:50.775936",
        "meta_mean_motion": 14.75631791,
        "meta_eccentricity": 0.00014738,
        "meta_inclination": 97.8554,
        "meta_ra_of_asc_node": 126.3587,
        "meta_arg_of_pericenter": 93.8282,
        "meta_mean_anomaly": 266.3096,
        "meta_ephemeris_type": 0,
        "meta_classification_type": "U",
        "meta_norad_cat_id": 35683,
        "meta_element_set_no": 999,
        "meta_rev_at_epoch": 87978,
        "meta_bstar": 9.2904635e-05,
        "meta_mean_motion_dot": 5.85e-06,
        "meta_mean_motion_ddot": 0,
        "tle_line1": "1 35683U 09041C   25351.59364324  .00000585  00000+0  92905-4 0  9997",
        "tle_line2": "2 35683  97.8554 126.3587 0001473  93.8282 266.3096 14.75631791879789"
      },
      "geometry": {
        "type": "Point",
        "coordinates": [
          175.73977732156195,
          -79.63355321028322
        ]
      }
    },
    {
      "type": "Feature",
      "properties": {
        "norad_id": 40715,
        "name": "DMC3-FM1",
        "group": "dmc",
        "lat": 28.836594999288558,
        "lon": 43.24086072554605,
        "alt_km": 613.5169100703861,
        "timestamp": "2025-12-17T23:38:06.529523+00:00",
        "meta_object_name": "DMC3-FM1",
        "meta_object_id": "2015-032A",
        "meta_epoch": "2025-12-17T14:52:29.864640",
        "meta_mean_motion": 14.85450097,
        "meta_eccentricity": 0.00043348,
        "meta_inclination": 97.6694,
        "meta_ra_of_asc_node": 218.6344,
        "meta_arg_of_pericenter": 302.9502,
        "meta_mean_anomaly": 57.1297,
        "meta_ephemeris_type": 0,
        "meta_classification_type": "U",
        "meta_norad_cat_id": 40715,
        "meta_element_set_no": 999,
        "meta_rev_at_epoch": 56295,
        "meta_bstar": 9.1508034e-05,
        "meta_mean_motion_dot": 7.37e-06,
        "meta_mean_motion_ddot": 0,
        "tle_line1": "1 40715U 15032A   25351.61979010  .00000737  00000+0  91508-4 0  9990",
        "tle_line2": "2 40715  97.6694 218.6344 0004334 302.9502  57.1297 14.85450097562954"
      },
      "geometry": {
        "type": "Point",
        "coordinates": [
          43.24086072554605,
          28.836594999288558
        ]
      }
    },
    {
      "type": "Feature",
      "properties": {
        "norad_id": 40716,
        "name": "DMC3-FM2",
        "group": "dmc",
        "lat": 30.247717091336135,
        "lon": -144.07675833030584,
        "alt_km": 610.2686018318445,
        "timestamp": "2025-12-17T23:38:06.529534+00:00",
        "meta_object_name": "DMC3-FM2",
        "meta_object_id": "2015-032B",
        "meta_epoch": "2025-12-17T15:24:53.144064",
        "meta_mean_motion": 14.85448448,
        "meta_eccentricity": 0.00049878,
        "meta_inclination": 97.6751,
        "meta_ra_of_asc_node": 220.1033,
        "meta_arg_of_pericenter": 307.981,
        "meta_mean_anomaly": 52.0955,
        "meta_ephemeris_type": 0,
        "meta_classification_type": "U",
        "meta_norad_cat_id": 40716,
        "meta_element_set_no": 999,
        "meta_rev_at_epoch": 56295,
        "meta_bstar": 2.5890157e-05,
        "meta_mean_motion_dot": 1.72e-06,
        "meta_mean_motion_ddot": 0,
        "tle_line1": "1 40716U 15032B   25351.64228176  .00000172  00000+0  25890-4 0  9998",
        "tle_line2": "2 40716  97.6751 220.1033 0004987 307.9810  52.0955 14.85448448562955"
      },
      "geometry": {
        "type": "Point",
        "coordinates": [
          -144.07675833030584,
          30.247717091336135
        ]
      }
    },
    {
      "type": "Feature",
      "properties": {
        "norad_id": 40717,
        "name": "DMC3-FM3",
        "group": "dmc",
        "lat": -80.9652816440461,
        "lon": -79.85945503752828,
        "alt_km": 617.0510816609167,
        "timestamp": "2025-12-17T23:38:06.529544+00:00",
        "meta_object_name": "DMC3-FM3",
        "meta_object_id": "2015-032C",
        "meta_epoch": "2025-12-17T15:56:04.988832",
        "meta_mean_motion": 14.85436932,
        "meta_eccentricity": 0.000433,
        "meta_inclination": 97.6804,
        "meta_ra_of_asc_node": 221.7604,
        "meta_arg_of_pericenter": 309.424,
        "meta_mean_anomaly": 50.6592,
        "meta_ephemeris_type": 0,
        "meta_classification_type": "U",
        "meta_norad_cat_id": 40717,
        "meta_element_set_no": 999,
        "meta_rev_at_epoch": 56296,
        "meta_bstar": 7.489563e-05,
        "meta_mean_motion_dot": 5.94e-06,
        "meta_mean_motion_ddot": 0,
        "tle_line1": "1 40717U 15032C   25351.66394663  .00000594  00000+0  74896-4 0  9994",
        "tle_line2": "2 40717  97.6804 221.7604 0004330 309.4240  50.6592 14.85436932562969"
      },
      "geometry": {
        "type": "Point",
        "coordinates": [
          -79.85945503752828,
          -80.9652816440461
        ]
      }
    }
  ]
}